start=new Date('2023-03-10T00:00:00.000Z').valueOf();
sats=[{"DECAY_DATE":null,"NORAD_CAT_ID":"55300","MEAN_MOTION_DDOT":"0.0000000000000","ELEMENT_SET_NO":"999","OBJECT_ID":"2023-010AH","MEAN_ANOMALY":"98.6986","ARG_OF_PERICENTER":"261.3821","CENTER_NAME":"EARTH","LAUNCH_DATE":"2023-01-19","REV_AT_EPOCH":"856","COUNTRY_CODE":"US","MEAN_ELEMENT_THEORY":"SGP4","PERIOD":"91.723","RCS_SIZE":"LARGE","RA_OF_ASC_NODE":"290.1717","MEAN_MOTION_DOT":"0.00007728","MEAN_MOTION":"15.69937363","FILE":"3855951","EPHEMERIS_TYPE":"0","OBJECT_NAME":"STARLINK-5308","APOAPSIS":"361.392","INCLINATION":"69.9988","CLASSIFICATION_TYPE":"U","TIME_SYSTEM":"UTC","EPOCH":"2023-03-09T21:02:01.534560","PERIAPSIS":"356.764","BSTAR":"0.00006594200000","SITE":"AFWTR","ECCENTRICITY":"0.00034350","TLE_LINE1":"1 55300U 23010AH  23068.87640665  .00007728  00000-0  65942-4 0  9994","SEMIMAJOR_AXIS":"6737.213","OBJECT_TYPE":"PAYLOAD","REF_FRAME":"TEME","TLE_LINE2":"2 55300  69.9988 290.1717 0003435 261.3821  98.6986 15.69937363  8566","GP_ID":"227772055"},{"BSTAR":"0.00010155000000","PERIAPSIS":"356.753","EPOCH":"2023-03-09T21:01:52.421952","CLASSIFICATION_TYPE":"U","TIME_SYSTEM":"UTC","INCLINATION":"70.0010","APOAPSIS":"361.339","OBJECT_NAME":"STARLINK-5321","FILE":"3855951","MEAN_MOTION":"15.69948618","EPHEMERIS_TYPE":"0","TLE_LINE2":"2 55302  70.0010 290.1729 0003403 268.8070  91.2736 15.69948618  8560","GP_ID":"227770805","REF_FRAME":"TEME","OBJECT_TYPE":"PAYLOAD","TLE_LINE1":"1 55302U 23010AK  23068.87630118  .00012028  00000-0  10155-3 0  9992","SEMIMAJOR_AXIS":"6737.181","SITE":"AFWTR","ECCENTRICITY":"0.00034030","ARG_OF_PERICENTER":"268.8070","CENTER_NAME":"EARTH","MEAN_ANOMALY":"91.2736","OBJECT_ID":"2023-010AK","NORAD_CAT_ID":"55302","MEAN_MOTION_DDOT":"0.0000000000000","ELEMENT_SET_NO":"999","DECAY_DATE":null,"RA_OF_ASC_NODE":"290.1729","MEAN_MOTION_DOT":"0.00012028","RCS_SIZE":"LARGE","MEAN_ELEMENT_THEORY":"SGP4","PERIOD":"91.723","COUNTRY_CODE":"US","LAUNCH_DATE":"2023-01-19","REV_AT_EPOCH":"856"},{"PERIAPSIS":"403.126","EPOCH":"2023-03-09T22:00:00.999936","BSTAR":"-0.01730200000000","INCLINATION":"69.9980","TIME_SYSTEM":"UTC","CLASSIFICATION_TYPE":"U","OBJECT_NAME":"STARLINK-5322","APOAPSIS":"407.831","MEAN_MOTION":"15.53857118","FILE":"3855951","EPHEMERIS_TYPE":"0","REF_FRAME":"TEME","GP_ID":"227771054","TLE_LINE2":"2 55303  69.9980 290.3046 0003468 271.8011 105.2221 15.53857118  1305","OBJECT_TYPE":"PAYLOAD","ECCENTRICITY":"0.00034680","SITE":"AFWTR","TLE_LINE1":"1 55303U 23010AL  23068.91667824 -.01019683  00000-0 -17302-1 0  9998","SEMIMAJOR_AXIS":"6783.614","MEAN_ANOMALY":"105.2221","CENTER_NAME":"EARTH","ARG_OF_PERICENTER":"271.8011","OBJECT_ID":"2023-010AL","DECAY_DATE":null,"MEAN_MOTION_DDOT":"0.0000000000000","NORAD_CAT_ID":"55303","ELEMENT_SET_NO":"999","RCS_SIZE":"LARGE","RA_OF_ASC_NODE":"290.3046","MEAN_MOTION_DOT":"-0.01019683","MEAN_ELEMENT_THEORY":"SGP4","PERIOD":"92.673","LAUNCH_DATE":"2023-01-19","REV_AT_EPOCH":"130","COUNTRY_CODE":"US"},{"INCLINATION":"69.9982","CLASSIFICATION_TYPE":"U","TIME_SYSTEM":"UTC","EPOCH":"2023-03-09T21:01:42.990528","PERIAPSIS":"356.183","BSTAR":"0.00004140800000","EPHEMERIS_TYPE":"0","FILE":"3855951","MEAN_MOTION":"15.69939880","OBJECT_NAME":"STARLINK-5318","APOAPSIS":"361.959","OBJECT_TYPE":"PAYLOAD","REF_FRAME":"TEME","GP_ID":"227771801","TLE_LINE2":"2 55304  69.9982 290.1707 0004287 269.2910  90.7795 15.69939880  8562","SITE":"AFWTR","ECCENTRICITY":"0.00042870","SEMIMAJOR_AXIS":"6737.206","TLE_LINE1":"1 55304U 23010AM  23068.87619202  .00004773  00000-0  41408-4 0  9999","OBJECT_ID":"2023-010AM","MEAN_ANOMALY":"90.7795","CENTER_NAME":"EARTH","ARG_OF_PERICENTER":"269.2910","DECAY_DATE":null,"ELEMENT_SET_NO":"999","MEAN_MOTION_DDOT":"0.0000000000000","NORAD_CAT_ID":"55304","RCS_SIZE":"LARGE","RA_OF_ASC_NODE":"290.1707","MEAN_MOTION_DOT":"0.00004773","LAUNCH_DATE":"2023-01-19","REV_AT_EPOCH":"856","COUNTRY_CODE":"US","PERIOD":"91.723","MEAN_ELEMENT_THEORY":"SGP4"},{"RCS_SIZE":"LARGE","RA_OF_ASC_NODE":"290.1844","MEAN_MOTION_DOT":"0.00002183","MEAN_ELEMENT_THEORY":"SGP4","PERIOD":"91.724","LAUNCH_DATE":"2023-01-19","REV_AT_EPOCH":"857","COUNTRY_CODE":"US","MEAN_ANOMALY":"92.8057","ARG_OF_PERICENTER":"267.2704","CENTER_NAME":"EARTH","OBJECT_ID":"2023-010AN","DECAY_DATE":null,"NORAD_CAT_ID":"55305","MEAN_MOTION_DDOT":"0.0000000000000","ELEMENT_SET_NO":"999","REF_FRAME":"TEME","GP_ID":"227771555","TLE_LINE2":"2 55305  69.9983 290.1844 0003795 267.2704  92.8057 15.69933388  8570","OBJECT_TYPE":"PAYLOAD","ECCENTRICITY":"0.00037950","SITE":"AFWTR","SEMIMAJOR_AXIS":"6737.225","TLE_LINE1":"1 55305U 23010AN  23068.87946145  .00002183  00000-0  19914-4 0  9999","PERIAPSIS":"356.533","EPOCH":"2023-03-09T21:06:25.469280","BSTAR":"0.00001991400000","INCLINATION":"69.9983","TIME_SYSTEM":"UTC","CLASSIFICATION_TYPE":"U","OBJECT_NAME":"STARLINK-5316","APOAPSIS":"361.646","FILE":"3855951","MEAN_MOTION":"15.69933388","EPHEMERIS_TYPE":"0"},{"ELEMENT_SET_NO":"999","MEAN_MOTION_DDOT":"0.0000000000000","NORAD_CAT_ID":"55306","DECAY_DATE":null,"OBJECT_ID":"2023-010AP","ARG_OF_PERICENTER":"265.2927","CENTER_NAME":"EARTH","MEAN_ANOMALY":"94.7913","COUNTRY_CODE":"US","LAUNCH_DATE":"2023-01-19","REV_AT_EPOCH":"857","PERIOD":"91.723","MEAN_ELEMENT_THEORY":"SGP4","MEAN_MOTION_DOT":"0.00012034","RA_OF_ASC_NODE":"290.1710","RCS_SIZE":"LARGE","EPHEMERIS_TYPE":"0","MEAN_MOTION":"15.69945755","FILE":"3855951","APOAPSIS":"361.152","OBJECT_NAME":"STARLINK-5295","CLASSIFICATION_TYPE":"U","TIME_SYSTEM":"UTC","INCLINATION":"70.0002","BSTAR":"0.00010162000000","EPOCH":"2023-03-09T21:01:25.224096","PERIAPSIS":"356.956","TLE_LINE1":"1 55306U 23010AP  23068.87598639  .00012034  00000-0  10162-3 0  9992","SEMIMAJOR_AXIS":"6737.189","SITE":"AFWTR","ECCENTRICITY":"0.00031140","OBJECT_TYPE":"PAYLOAD","TLE_LINE2":"2 55306  70.0002 290.1710 0003114 265.2927  94.7913 15.69945755  8571","GP_ID":"227770305","REF_FRAME":"TEME"},{"PERIOD":"91.723","MEAN_ELEMENT_THEORY":"SGP4","COUNTRY_CODE":"US","LAUNCH_DATE":"2023-01-19","REV_AT_EPOCH":"857","MEAN_MOTION_DOT":"0.00010650","RA_OF_ASC_NODE":"290.1710","RCS_SIZE":"LARGE","ELEMENT_SET_NO":"999","MEAN_MOTION_DDOT":"0.0000000000000","NORAD_CAT_ID":"55307","DECAY_DATE":null,"ARG_OF_PERICENTER":"271.4722","CENTER_NAME":"EARTH","MEAN_ANOMALY":"88.6007","OBJECT_ID":"2023-010AQ","SEMIMAJOR_AXIS":"6737.208","TLE_LINE1":"1 55307U 23010AQ  23068.87608955  .00010650  00000-0  90166-4 0  9991","SITE":"AFWTR","ECCENTRICITY":"0.00040740","GP_ID":"227770554","TLE_LINE2":"2 55307  69.9967 290.1710 0004074 271.4722  88.6007 15.69939028  8579","REF_FRAME":"TEME","OBJECT_TYPE":"PAYLOAD","APOAPSIS":"361.818","OBJECT_NAME":"STARLINK-5288","EPHEMERIS_TYPE":"0","FILE":"3855951","MEAN_MOTION":"15.69939028","BSTAR":"0.00009016600000","EPOCH":"2023-03-09T21:01:34.137120","PERIAPSIS":"356.329","CLASSIFICATION_TYPE":"U","TIME_SYSTEM":"UTC","INCLINATION":"69.9967"},{"SEMIMAJOR_AXIS":"6737.219","TLE_LINE1":"1 55308U 23010AR  23068.87556277  .00003958  00000-0  34654-4 0  9994","ECCENTRICITY":"0.00037490","SITE":"AFWTR","OBJECT_TYPE":"PAYLOAD","TLE_LINE2":"2 55308  69.9980 290.1691 0003749 275.8283  84.2486 15.69935244  9447","GP_ID":"227771301","REF_FRAME":"TEME","MEAN_MOTION":"15.69935244","FILE":"3855951","EPHEMERIS_TYPE":"0","APOAPSIS":"361.610","OBJECT_NAME":"STARLINK-5292","TIME_SYSTEM":"UTC","CLASSIFICATION_TYPE":"U","INCLINATION":"69.9980","BSTAR":"0.00003465400000","PERIAPSIS":"356.558","EPOCH":"2023-03-09T21:00:48.623328","COUNTRY_CODE":"US","REV_AT_EPOCH":"944","LAUNCH_DATE":"2023-01-19","MEAN_ELEMENT_THEORY":"SGP4","PERIOD":"91.724","RA_OF_ASC_NODE":"290.1691","MEAN_MOTION_DOT":"0.00003958","RCS_SIZE":"LARGE","NORAD_CAT_ID":"55308","MEAN_MOTION_DDOT":"0.0000000000000","ELEMENT_SET_NO":"999","DECAY_DATE":null,"OBJECT_ID":"2023-010AR","CENTER_NAME":"EARTH","ARG_OF_PERICENTER":"275.8283","MEAN_ANOMALY":"84.2486"},{"COUNTRY_CODE":"US","LAUNCH_DATE":"2023-01-19","REV_AT_EPOCH":"855","PERIOD":"91.723","MEAN_ELEMENT_THEORY":"SGP4","RA_OF_ASC_NODE":"290.5295","MEAN_MOTION_DOT":"0.00005471","RCS_SIZE":"LARGE","ELEMENT_SET_NO":"999","NORAD_CAT_ID":"55309","MEAN_MOTION_DDOT":"0.0000000000000","DECAY_DATE":null,"OBJECT_ID":"2023-010AS","CENTER_NAME":"EARTH","ARG_OF_PERICENTER":"273.3102","MEAN_ANOMALY":"86.7710","TLE_LINE1":"1 55309U 23010AS  23068.74844802  .00005471  00000-0  47212-4 0  9991","SEMIMAJOR_AXIS":"6737.214","ECCENTRICITY":"0.00033540","SITE":"AFWTR","OBJECT_TYPE":"PAYLOAD","TLE_LINE2":"2 55309  69.9999 290.5295 0003354 273.3102  86.7710 15.69936951  8551","GP_ID":"227772056","REF_FRAME":"TEME","EPHEMERIS_TYPE":"0","FILE":"3855951","MEAN_MOTION":"15.69936951","APOAPSIS":"361.339","OBJECT_NAME":"STARLINK-5315","CLASSIFICATION_TYPE":"U","TIME_SYSTEM":"UTC","INCLINATION":"69.9999","BSTAR":"0.00004721200000","EPOCH":"2023-03-09T17:57:45.908928","PERIAPSIS":"356.820"},{"SEMIMAJOR_AXIS":"6737.242","TLE_LINE1":"1 55310U 23010AT  23068.74824170  .00010896  00000-0  92254-4 0  9992","ECCENTRICITY":"0.00033510","SITE":"AFWTR","OBJECT_TYPE":"PAYLOAD","GP_ID":"227770806","TLE_LINE2":"2 55310  70.0010 290.5290 0003351 272.6148  87.4664 15.69927152  8553","REF_FRAME":"TEME","EPHEMERIS_TYPE":"0","MEAN_MOTION":"15.69927152","FILE":"3855951","APOAPSIS":"361.365","OBJECT_NAME":"STARLINK-5309","CLASSIFICATION_TYPE":"U","TIME_SYSTEM":"UTC","INCLINATION":"70.0010","BSTAR":"0.00009225400000","EPOCH":"2023-03-09T17:57:28.082880","PERIAPSIS":"356.850","COUNTRY_CODE":"US","LAUNCH_DATE":"2023-01-19","REV_AT_EPOCH":"855","PERIOD":"91.724","MEAN_ELEMENT_THEORY":"SGP4","MEAN_MOTION_DOT":"0.00010896","RA_OF_ASC_NODE":"290.5290","RCS_SIZE":"LARGE","ELEMENT_SET_NO":"999","MEAN_MOTION_DDOT":"0.0000000000000","NORAD_CAT_ID":"55310","DECAY_DATE":null,"OBJECT_ID":"2023-010AT","ARG_OF_PERICENTER":"272.6148","CENTER_NAME":"EARTH","MEAN_ANOMALY":"87.4664"}];
